start=new Date('2022-10-24T00:00:00.000Z').valueOf();
sats=[{"OBJECT_NAME":"STARLINK-2667","MEAN_MOTION":"15.06406358","OBJECT_ID":"2021-044AB","EPHEMERIS_TYPE":"0","COUNTRY_CODE":"US","REV_AT_EPOCH":"7799","RCS_SIZE":"LARGE","FILE":"3630604","NORAD_CAT_ID":"48663","RA_OF_ASC_NODE":"247.2245","ARG_OF_PERICENTER":"58.6210","CLASSIFICATION_TYPE":"U","TLE_LINE2":"2 48663  53.0555 247.2245 0001710  58.6210 301.4946 15.06406358 77996","OBJECT_TYPE":"PAYLOAD","APOAPSIS":"548.378","ECCENTRICITY":"0.00017100","TIME_SYSTEM":"UTC","GP_ID":"215993392","MEAN_ELEMENT_THEORY":"SGP4","CENTER_NAME":"EARTH","BSTAR":"0.00004948800000","PERIAPSIS":"546.010","LAUNCH_DATE":"2021-05-26","SEMIMAJOR_AXIS":"6925.329","SITE":"AFETR","INCLINATION":"53.0555","EPOCH":"2022-10-23T14:09:42.727104","MEAN_MOTION_DDOT":"0.0000000000000","PERIOD":"95.592","ELEMENT_SET_NO":"999","REF_FRAME":"TEME","MEAN_ANOMALY":"301.4946","DECAY_DATE":null,"TLE_LINE1":"1 48663U 21044AB  22296.59007786  .00000456  00000-0  49488-4 0  9993","MEAN_MOTION_DOT":"0.00000456"},{"PERIOD":"95.591","ELEMENT_SET_NO":"999","REF_FRAME":"TEME","MEAN_ANOMALY":"312.5216","DECAY_DATE":null,"TLE_LINE1":"1 48664U 21044AC  22296.58638074  .00002165  00000-0  16414-3 0  9994","MEAN_MOTION_DOT":"0.00002165","INCLINATION":"53.0558","EPOCH":"2022-10-23T14:04:23.295936","MEAN_MOTION_DDOT":"0.0000000000000","BSTAR":"0.00016414000000","PERIAPSIS":"545.793","LAUNCH_DATE":"2021-05-26","SITE":"AFETR","SEMIMAJOR_AXIS":"6925.308","MEAN_ELEMENT_THEORY":"SGP4","CENTER_NAME":"EARTH","ECCENTRICITY":"0.00019930","TIME_SYSTEM":"UTC","GP_ID":"215993642","NORAD_CAT_ID":"48664","ARG_OF_PERICENTER":"47.5941","RA_OF_ASC_NODE":"247.2432","OBJECT_TYPE":"PAYLOAD","TLE_LINE2":"2 48664  53.0558 247.2432 0001993  47.5941 312.5216 15.06413187 77990","CLASSIFICATION_TYPE":"U","APOAPSIS":"548.553","COUNTRY_CODE":"US","REV_AT_EPOCH":"7799","RCS_SIZE":"LARGE","FILE":"3630604","OBJECT_NAME":"STARLINK-2709","MEAN_MOTION":"15.06413187","OBJECT_ID":"2021-044AC","EPHEMERIS_TYPE":"0"},{"COUNTRY_CODE":"US","FILE":"3630604","RCS_SIZE":"LARGE","REV_AT_EPOCH":"7799","OBJECT_NAME":"STARLINK-2653","OBJECT_ID":"2021-044AD","MEAN_MOTION":"15.06411567","EPHEMERIS_TYPE":"0","ECCENTRICITY":"0.00015780","TIME_SYSTEM":"UTC","GP_ID":"215994393","RA_OF_ASC_NODE":"247.1653","ARG_OF_PERICENTER":"60.8005","NORAD_CAT_ID":"48665","OBJECT_TYPE":"PAYLOAD","TLE_LINE2":"2 48665  53.0542 247.1653 0001578  60.8005 299.3141 15.06411567 77995","CLASSIFICATION_TYPE":"U","APOAPSIS":"548.271","BSTAR":"0.00015725000000","LAUNCH_DATE":"2021-05-26","PERIAPSIS":"546.085","SEMIMAJOR_AXIS":"6925.313","SITE":"AFETR","MEAN_ELEMENT_THEORY":"SGP4","CENTER_NAME":"EARTH","ELEMENT_SET_NO":"999","PERIOD":"95.591","REF_FRAME":"TEME","TLE_LINE1":"1 48665U 21044AD  22296.60018009  .00002062  00000-0  15725-3 0  9998","MEAN_MOTION_DOT":"0.00002062","MEAN_ANOMALY":"299.3141","DECAY_DATE":null,"INCLINATION":"53.0542","EPOCH":"2022-10-23T14:24:15.559776","MEAN_MOTION_DDOT":"0.0000000000000"},{"EPOCH":"2022-10-23T06:43:55.989696","INCLINATION":"53.0550","MEAN_MOTION_DDOT":"0.0000000000000","PERIOD":"95.592","ELEMENT_SET_NO":"999","DECAY_DATE":null,"MEAN_ANOMALY":"305.0833","TLE_LINE1":"1 48666U 21044AE  22296.28050914  .00000851  00000-0  76000-4 0  9992","MEAN_MOTION_DOT":"0.00000851","REF_FRAME":"TEME","CENTER_NAME":"EARTH","MEAN_ELEMENT_THEORY":"SGP4","BSTAR":"0.00007600000000","SITE":"AFETR","SEMIMAJOR_AXIS":"6925.324","PERIAPSIS":"546.022","LAUNCH_DATE":"2021-05-26","NORAD_CAT_ID":"48666","RA_OF_ASC_NODE":"249.0931","ARG_OF_PERICENTER":"55.0314","APOAPSIS":"548.356","OBJECT_TYPE":"PAYLOAD","TLE_LINE2":"2 48666  53.0550 249.0931 0001685  55.0314 305.0833 15.06408010 77939","CLASSIFICATION_TYPE":"U","ECCENTRICITY":"0.00016850","TIME_SYSTEM":"UTC","GP_ID":"215962630","OBJECT_NAME":"STARLINK-2666","EPHEMERIS_TYPE":"0","MEAN_MOTION":"15.06408010","OBJECT_ID":"2021-044AE","COUNTRY_CODE":"US","REV_AT_EPOCH":"7793","RCS_SIZE":"LARGE","FILE":"3630365"},{"COUNTRY_CODE":"US","FILE":"3630604","REV_AT_EPOCH":"7803","RCS_SIZE":"LARGE","OBJECT_NAME":"STARLINK-2735","OBJECT_ID":"2021-044AF","MEAN_MOTION":"15.06396057","EPHEMERIS_TYPE":"0","ECCENTRICITY":"0.00016440","TIME_SYSTEM":"UTC","GP_ID":"215993893","RA_OF_ASC_NODE":"246.0675","ARG_OF_PERICENTER":"75.0239","NORAD_CAT_ID":"48667","CLASSIFICATION_TYPE":"U","TLE_LINE2":"2 48667  53.0561 246.0675 0001644  75.0239 285.0932 15.06396057 78033","OBJECT_TYPE":"PAYLOAD","APOAPSIS":"548.364","BSTAR":"0.00004280100000","LAUNCH_DATE":"2021-05-26","PERIAPSIS":"546.087","SITE":"AFETR","SEMIMAJOR_AXIS":"6925.361","MEAN_ELEMENT_THEORY":"SGP4","CENTER_NAME":"EARTH","ELEMENT_SET_NO":"999","PERIOD":"95.592","REF_FRAME":"TEME","TLE_LINE1":"1 48667U 21044AF  22296.84808895  .00000356  00000-0  42801-4 0  9996","MEAN_MOTION_DOT":"0.00000356","DECAY_DATE":null,"MEAN_ANOMALY":"285.0932","INCLINATION":"53.0561","EPOCH":"2022-10-23T20:21:14.885280","MEAN_MOTION_DDOT":"0.0000000000000"},{"ELEMENT_SET_NO":"999","PERIOD":"95.592","MEAN_MOTION_DOT":"0.00001368","TLE_LINE1":"1 48668U 21044AG  22296.57901910  .00001368  00000-0  11073-3 0  9999","MEAN_ANOMALY":"310.5098","DECAY_DATE":null,"REF_FRAME":"TEME","EPOCH":"2022-10-23T13:53:47.250240","INCLINATION":"53.0539","MEAN_MOTION_DDOT":"0.0000000000000","BSTAR":"0.00011073000000","SITE":"AFETR","SEMIMAJOR_AXIS":"6925.343","LAUNCH_DATE":"2021-05-26","PERIAPSIS":"545.915","CENTER_NAME":"EARTH","MEAN_ELEMENT_THEORY":"SGP4","TIME_SYSTEM":"UTC","ECCENTRICITY":"0.00018660","GP_ID":"215994143","RA_OF_ASC_NODE":"247.2686","ARG_OF_PERICENTER":"49.6053","NORAD_CAT_ID":"48668","APOAPSIS":"548.500","TLE_LINE2":"2 48668  53.0539 247.2686 0001866  49.6053 310.5098 15.06401936 77995","OBJECT_TYPE":"PAYLOAD","CLASSIFICATION_TYPE":"U","COUNTRY_CODE":"US","FILE":"3630604","REV_AT_EPOCH":"7799","RCS_SIZE":"LARGE","OBJECT_NAME":"STARLINK-2738","EPHEMERIS_TYPE":"0","OBJECT_ID":"2021-044AG","MEAN_MOTION":"15.06401936"},{"ELEMENT_SET_NO":"999","PERIOD":"95.592","REF_FRAME":"TEME","TLE_LINE1":"1 48669U 21044AH  22296.57532546  .00002085  00000-0  15877-3 0  9998","MEAN_MOTION_DOT":"0.00002085","DECAY_DATE":null,"MEAN_ANOMALY":"292.7103","INCLINATION":"53.0559","EPOCH":"2022-10-23T13:48:28.119744","MEAN_MOTION_DDOT":"0.0000000000000","BSTAR":"0.00015877000000","LAUNCH_DATE":"2021-05-26","PERIAPSIS":"546.105","SEMIMAJOR_AXIS":"6925.318","SITE":"AFETR","MEAN_ELEMENT_THEORY":"SGP4","CENTER_NAME":"EARTH","TIME_SYSTEM":"UTC","ECCENTRICITY":"0.00015570","GP_ID":"215994894","ARG_OF_PERICENTER":"67.4051","RA_OF_ASC_NODE":"247.2736","NORAD_CAT_ID":"48669","TLE_LINE2":"2 48669  53.0559 247.2736 0001557  67.4051 292.7103 15.06409871 77980","CLASSIFICATION_TYPE":"U","OBJECT_TYPE":"PAYLOAD","APOAPSIS":"548.262","COUNTRY_CODE":"US","FILE":"3630604","REV_AT_EPOCH":"7798","RCS_SIZE":"LARGE","OBJECT_NAME":"STARLINK-2707","OBJECT_ID":"2021-044AH","MEAN_MOTION":"15.06409871","EPHEMERIS_TYPE":"0"},{"TLE_LINE2":"2 48670  53.0544 248.7800 0001690  49.8913 310.2224 15.06406029 77930","OBJECT_TYPE":"PAYLOAD","CLASSIFICATION_TYPE":"U","APOAPSIS":"548.365","RA_OF_ASC_NODE":"248.7800","ARG_OF_PERICENTER":"49.8913","NORAD_CAT_ID":"48670","GP_ID":"215962131","TIME_SYSTEM":"UTC","ECCENTRICITY":"0.00016900","OBJECT_ID":"2021-044AJ","MEAN_MOTION":"15.06406029","EPHEMERIS_TYPE":"0","OBJECT_NAME":"STARLINK-2763","FILE":"3630365","REV_AT_EPOCH":"7793","RCS_SIZE":"LARGE","COUNTRY_CODE":"US","MEAN_MOTION_DDOT":"0.0000000000000","INCLINATION":"53.0544","EPOCH":"2022-10-23T05:45:28.093536","REF_FRAME":"TEME","TLE_LINE1":"1 48670U 21044AJ  22296.23990849  .00001869  00000-0  14430-3 0  9990","MEAN_MOTION_DOT":"0.00001869","DECAY_DATE":null,"MEAN_ANOMALY":"310.2224","ELEMENT_SET_NO":"999","PERIOD":"95.592","MEAN_ELEMENT_THEORY":"SGP4","CENTER_NAME":"EARTH","LAUNCH_DATE":"2021-05-26","PERIAPSIS":"546.025","SEMIMAJOR_AXIS":"6925.330","SITE":"AFETR","BSTAR":"0.00014430000000"},{"MEAN_ELEMENT_THEORY":"SGP4","CENTER_NAME":"EARTH","BSTAR":"0.00004732900000","LAUNCH_DATE":"2021-05-26","PERIAPSIS":"546.138","SEMIMAJOR_AXIS":"6925.352","SITE":"AFETR","INCLINATION":"53.0551","EPOCH":"2022-10-23T07:15:42.630336","MEAN_MOTION_DDOT":"0.0000000000000","ELEMENT_SET_NO":"999","PERIOD":"95.592","REF_FRAME":"TEME","MEAN_MOTION_DOT":"0.00000423","TLE_LINE1":"1 48671U 21044AK  22296.30257674  .00000423  00000-0  47329-4 0  9990","DECAY_DATE":null,"MEAN_ANOMALY":"299.6784","OBJECT_NAME":"STARLINK-2745","OBJECT_ID":"2021-044AK","MEAN_MOTION":"15.06398783","EPHEMERIS_TYPE":"0","COUNTRY_CODE":"US","FILE":"3630365","RCS_SIZE":"LARGE","REV_AT_EPOCH":"7794","ARG_OF_PERICENTER":"60.4361","RA_OF_ASC_NODE":"248.5133","NORAD_CAT_ID":"48671","TLE_LINE2":"2 48671  53.0551 248.5133 0001559  60.4361 299.6784 15.06398783 77945","CLASSIFICATION_TYPE":"U","OBJECT_TYPE":"PAYLOAD","APOAPSIS":"548.297","ECCENTRICITY":"0.00015590","TIME_SYSTEM":"UTC","GP_ID":"215962381"},{"CLASSIFICATION_TYPE":"U","TLE_LINE2":"2 48672  53.0523 248.2384 0001774  55.3142 304.8014 15.06400312 77957","OBJECT_TYPE":"PAYLOAD","APOAPSIS":"548.441","ARG_OF_PERICENTER":"55.3142","RA_OF_ASC_NODE":"248.2384","NORAD_CAT_ID":"48672","GP_ID":"215963632","ECCENTRICITY":"0.00017740","TIME_SYSTEM":"UTC","OBJECT_ID":"2021-044AL","MEAN_MOTION":"15.06400312","EPHEMERIS_TYPE":"0","OBJECT_NAME":"STARLINK-2705","FILE":"3630365","REV_AT_EPOCH":"7795","RCS_SIZE":"LARGE","COUNTRY_CODE":"US","MEAN_MOTION_DDOT":"0.0000000000000","INCLINATION":"53.0523","EPOCH":"2022-10-23T08:45:56.477664","REF_FRAME":"TEME","TLE_LINE1":"1 48672U 21044AL  22296.36523701  .00000821  00000-0  74020-4 0  9994","MEAN_MOTION_DOT":"0.00000821","MEAN_ANOMALY":"304.8014","DECAY_DATE":null,"ELEMENT_SET_NO":"999","PERIOD":"95.592","MEAN_ELEMENT_THEORY":"SGP4","CENTER_NAME":"EARTH","LAUNCH_DATE":"2021-05-26","PERIAPSIS":"545.984","SEMIMAJOR_AXIS":"6925.348","SITE":"AFETR","BSTAR":"0.00007402000000"}];
